NORAD_CAT_ID,OBJECT_NAME,OBJECT_TYPE,EPOCH,MEAN_MOTION,ECCENTRICITY,INCLINATION,RA_OF_ASC_NODE,ARG_OF_PERICENTER,MEAN_ANOMALY,BSTAR,MEAN_MOTION_DOT,MEAN_MOTION_DDOT,TLE_LINE0,TLE_LINE1,TLE_LINE2,SEMIMAJOR_AXIS,PERIOD,APOGEE,PERIGEE,DECAYED
53531.0,STARLINK-4487,PAYLOAD,2023-09-26 20:45:48,15.08830064,0.000133,53.2154,131.1415,85.6743,274.4401,-0.00012308,-2.246e-05,0.0,0 STARLINK-4487,1 53531U 22101E   23269.86514484 -.00002246  00000-0 -12308-3 0  9998,2 53531  53.2154 131.1415 0001330  85.6743 274.4401 15.08830064 61076,6917.911,95.438,540.696,538.856,0.0
53531.0,STARLINK-4487,PAYLOAD,2023-09-26 23:56:35,15.08816327,0.0001456,53.2165,130.5452,90.6031,269.5128,0.00027411,4.074e-05,0.0,0 STARLINK-4487,1 53531U 22101E   23269.99763070  .00004074  00000-0  27411-3 0  9999,2 53531  53.2165 130.5452 0001456  90.6031 269.5128 15.08816327 61096,6917.953,95.439,540.825,538.81,0.0
53531.0,STARLINK-4487,PAYLOAD,2023-09-27 07:53:30,15.08836065,0.0001455,53.2165,129.0584,86.0319,274.0839,1.8221e-06,-2.59e-06,0.0,0 STARLINK-4487,1 53531U 22101E   23270.32882720 -.00000259  00000-0  18221-5 0  9995,2 53531  53.2165 129.0584 0001455  86.0319 274.0839 15.08836065 61149,6917.892,95.438,540.764,538.751,0.0
53531.0,STARLINK-4487,PAYLOAD,2023-09-27 23:47:22,15.08800029,0.0001743,53.2167,126.0833,93.608,266.5112,0.00063377,9.802e-05,0.0,0 STARLINK-4487,1 53531U 22101E   23270.99123451  .00009802  00000-0  63377-3 0  9999,2 53531  53.2167 126.0833 0001743  93.6080 266.5112 15.08800029 61246,6918.003,95.44,541.073,538.662,0.0
53531.0,STARLINK-4487,PAYLOAD,2023-09-28 18:51:59,15.08844655,0.000147,53.2169,122.5152,87.0971,273.0189,0.00016933,2.408e-05,0.0,0 STARLINK-4487,1 53531U 22101E   23271.78610154  .00002408  00000-0  16933-3 0  9999,2 53531  53.2169 122.5152 0001470  87.0971 273.0189 15.08844655 61369,6917.866,95.437,540.748,538.714,0.0
53531.0,STARLINK-4487,PAYLOAD,2023-09-28 20:27:22,15.08846577,0.0001484,53.2167,122.2182,86.8374,273.2787,0.00018769,2.701e-05,0.0,0 STARLINK-4487,1 53531U 22101E   23271.85234003  .00002701  00000-0  18769-3 0  9997,2 53531  53.2167 122.2182 0001484  86.8374 273.2787 15.08846577 61378,6917.86,95.437,540.752,538.699,0.0
53531.0,STARLINK-4487,PAYLOAD,2023-09-28 23:38:08,15.08847905,0.0001489,53.2167,121.6236,86.8364,273.2798,0.00019756,2.858e-05,0.0,0 STARLINK-4487,1 53531U 22101E   23271.98481901  .00002858  00000-0  19756-3 0  9992,2 53531  53.2167 121.6236 0001489  86.8364 273.2798 15.08847905 61395,6917.856,95.437,540.751,538.691,0.0
53531.0,STARLINK-4487,PAYLOAD,2023-09-29 20:18:09,15.08848737,0.0001415,53.2166,117.7579,88.5657,271.5498,8.5306e-05,1.07e-05,0.0,0 STARLINK-4487,1 53531U 22101E   23272.84593906  .00001070  00000-0  85306-4 0  9997,2 53531  53.2166 117.7579 0001415  88.5657 271.5498 15.08848737 61520,6917.854,95.437,540.698,538.74,0.0
53531.0,STARLINK-4487,PAYLOAD,2023-09-30 18:33:33,15.08839927,0.0001402,53.2163,113.5937,104.3342,255.7806,-7.3118e-05,-1.451e-05,0.0,0 STARLINK-4487,1 53531U 22101E   23273.77330532 -.00001451  00000-0 -73118-4 0  9997,2 53531  53.2163 113.5937 0001402 104.3342 255.7806 15.08839927 61666,6917.881,95.438,540.715,538.776,0.0
53531.0,STARLINK-4487,PAYLOAD,2023-10-01 13:38:10,15.08853011,0.0001315,53.2164,110.0274,90.2831,269.8312,-0.00011029,-2.043e-05,0.0,0 STARLINK-4487,1 53531U 22101E   23274.56818053 -.00002043  00000-0 -11029-3 0  9994,2 53531  53.2164 110.0274 0001315  90.2831 269.8312 15.08853011 61783,6917.841,95.437,540.615,538.796,0.0
53531.0,STARLINK-4487,PAYLOAD,2023-10-01 18:24:19,15.08850369,0.0001218,53.2161,109.1354,89.5634,270.5498,4.3967e-05,4.12e-06,0.0,0 STARLINK-4487,1 53531U 22101E   23274.76689515  .00000412  00000-0  43967-4 0  9998,2 53531  53.2161 109.1354 0001218  89.5634 270.5498 15.08850369 61813,6917.849,95.437,540.556,538.871,0.0
53531.0,STARLINK-4487,PAYLOAD,2023-10-01 19:59:42,15.08853052,0.0001249,53.2162,108.8376,93.1345,266.979,7.1578e-05,8.52e-06,0.0,0 STARLINK-4487,1 53531U 22101E   23274.83313248  .00000852  00000-0  71578-4 0  9990,2 53531  53.2162 108.8376 0001249  93.1345 266.9790 15.08853052 61825,6917.84,95.437,540.57,538.841,0.0
53531.0,STARLINK-4487,PAYLOAD,2023-10-01 23:10:28,15.08861171,0.0001358,53.2165,108.2419,91.4167,268.6981,7.2744e-06,-1.72e-06,0.0,0 STARLINK-4487,1 53531U 22101E   23274.96560848 -.00000172  00000-0  72744-5 0  9997,2 53531  53.2165 108.2419 0001358  91.4167 268.6981 15.08861171 61848,6917.816,95.436,540.62,538.741,0.0
53531.0,STARLINK-4487,PAYLOAD,2023-10-02 05:32:02,15.08838241,0.0001984,53.2164,107.0537,77.8928,282.2287,8.9815e-05,1.141e-05,0.0,0 STARLINK-4487,1 53531U 22101E   23275.23058408  .00001141  00000-0  89815-4 0  9994,2 53531  53.2164 107.0537 0001984  77.8928 282.2287 15.08838241 61880,6917.886,95.438,541.123,538.378,0.0
53531.0,STARLINK-4487,PAYLOAD,2023-10-02 19:50:31,15.08834524,0.0001326,53.216,104.3782,85.6231,274.4913,9.1544e-05,1.169e-05,0.0,0 STARLINK-4487,1 53531U 22101E   23275.82674860  .00001169  00000-0  91544-4 0  9997,2 53531  53.2160 104.3782 0001326  85.6231 274.4913 15.08834524 61971,6917.897,95.438,540.679,538.845,0.0
53531.0,STARLINK-4487,PAYLOAD,2023-10-03 11:44:22,15.0884026,0.000142,53.2156,101.4046,78.7918,281.3234,-1.575e-05,-5.39e-06,0.0,0 STARLINK-4487,1 53531U 22101E   23276.48914476 -.00000539  00000-0 -15750-4 0  9997,2 53531  53.2156 101.4046 0001420  78.7918 281.3234 15.08840260 62076,6917.88,95.438,540.727,538.762,0.0
53531.0,STARLINK-4487,PAYLOAD,2023-10-03 18:05:54,15.08843492,0.000143,53.2157,100.2152,78.6394,281.4759,5.6361e-05,6.09e-06,0.0,0 STARLINK-4487,1 53531U 22101E   23276.75410361  .00000609  00000-0  56361-4 0  9990,2 53531  53.2157 100.2152 0001430  78.6394 281.4759 15.08843492 62118,6917.87,95.437,540.724,538.745,0.0
53531.0,STARLINK-4487,PAYLOAD,2023-10-03 19:41:17,15.08844704,0.0001441,53.2154,99.9177,79.4582,280.6572,0.00015058,2.11e-05,0.0,0 STARLINK-4487,1 53531U 22101E   23276.82034319  .00002110  00000-0  15058-3 0  9999,2 53531  53.2154  99.9177 0001441  79.4582 280.6572 15.08844704 62128,6917.866,95.437,540.728,538.734,0.0
53531.0,STARLINK-4487,PAYLOAD,2023-10-04 11:35:09,15.08844466,0.0001464,53.2157,96.9442,83.6215,276.4944,0.0002329,3.421e-05,0.0,0 STARLINK-4487,1 53531U 22101E   23277.48274445  .00003421  00000-0  23290-3 0  9991,2 53531  53.2157  96.9442 0001464  83.6215 276.4944 15.08844466 62220,6917.867,95.437,540.745,538.719,0.0
53531.0,STARLINK-4487,PAYLOAD,2023-10-04 19:32:04,15.08850357,0.0001414,53.2154,95.4568,79.404,280.7112,0.00033087,4.983e-05,0.0,0 STARLINK-4487,1 53531U 22101E   23277.81394208  .00004983  00000-0  33087-3 0  9997,2 53531  53.2154  95.4568 0001414  79.4040 280.7112 15.08850357 62270,6917.849,95.437,540.692,538.736,0.0
53531.0,STARLINK-4487,PAYLOAD,2023-10-05 11:25:56,15.0884354,0.0001465,53.2149,92.4839,69.5206,290.5943,4.4317e-05,4.17e-06,0.0,0 STARLINK-4487,1 53531U 22101E   23278.47634342  .00000417  00000-0  44317-4 0  9993,2 53531  53.2149  92.4839 0001465  69.5206 290.5943 15.08843540 62370,6917.87,95.437,540.748,538.721,0.0
53531.0,STARLINK-4487,PAYLOAD,2023-10-05 19:22:51,15.08845784,0.0001404,53.2154,90.9962,73.9446,286.1701,8.9089e-05,1.13e-05,0.0,0 STARLINK-4487,1 53531U 22101E   23278.80754273  .00001130  00000-0  89089-4 0  9994,2 53531  53.2154  90.9962 0001404  73.9446 286.1701 15.08845784 62425,6917.863,95.437,540.699,538.756,0.0
53531.0,STARLINK-4487,PAYLOAD,2023-10-06 17:38:15,15.08840347,0.0001448,53.2158,86.8322,84.1682,275.9475,1.9624e-05,2.4e-07,0.0,0 STARLINK-4487,1 53531U 22101E   23279.73490670  .00000024  00000-0  19624-4 0  9994,2 53531  53.2158  86.8322 0001448  84.1682 275.9475 15.08840347 62566,6917.879,95.438,540.746,538.743,0.0
53531.0,STARLINK-4487,PAYLOAD,2023-10-07 14:18:16,15.08839377,0.0001408,53.2153,82.9674,90.5111,269.6042,0.00014246,1.98e-05,0.0,0 STARLINK-4487,1 53531U 22101E   23280.59602868  .00001980  00000-0  14246-3 0  9990,2 53531  53.2153  82.9674 0001408  90.5111 269.6042 15.08839377 62697,6917.882,95.438,540.721,538.773,0.0
53531.0,STARLINK-4487,PAYLOAD,2023-10-07 20:39:49,15.08847849,0.0001472,53.2157,81.7772,91.1279,268.9882,0.00021295,3.103e-05,0.0,0 STARLINK-4487,1 53531U 22101E   23280.86098443  .00003103  00000-0  21295-3 0  9999,2 53531  53.2157  81.7772 0001472  91.1279 268.9882 15.08847849 62732,6917.856,95.437,540.74,538.703,0.0
53531.0,STARLINK-4487,PAYLOAD,2023-10-08 10:58:17,15.08839306,0.0001563,53.2169,79.0966,107.3265,252.7899,5.5512e-05,5.96e-06,0.0,0 STARLINK-4487,1 53531U 22101E   23281.45714868  .00000596  00000-0  55512-4 0  9994,2 53531  53.2169  79.0966 0001563 107.3265 252.7899 15.08839306 62824,6917.883,95.438,540.829,538.666,0.0
53531.0,STARLINK-4487,PAYLOAD,2023-10-08 14:09:03,15.08842211,0.0001542,53.2155,78.5066,103.7019,256.4144,0.0001266,1.728e-05,0.0,0 STARLINK-4487,1 53531U 22101E   23281.58962774  .00001728  00000-0  12660-3 0  9993,2 53531  53.2155  78.5066 0001542 103.7019 256.4144 15.08842211 62843,6917.874,95.437,540.805,538.672,0.0
53531.0,STARLINK-4487,PAYLOAD,2023-10-08 20:30:36,15.08848944,0.0001296,53.2159,77.3172,92.4918,267.6222,0.00026088,3.867e-05,0.0,0 STARLINK-4487,1 53531U 22101E   23281.85458530  .00003867  00000-0  26088-3 0  9998,2 53531  53.2159  77.3172 0001296  92.4918 267.6222 15.08848944 62884,6917.853,95.437,540.615,538.821,0.0
53531.0,STARLINK-4487,PAYLOAD,2023-10-09 13:59:51,15.08841042,0.0001349,53.2165,74.0474,90.0514,270.0633,8.7085e-05,1.098e-05,0.0,0 STARLINK-4487,1 53531U 22101E   23282.58322934  .00001098  00000-0  87085-4 0  9996,2 53531  53.2165  74.0474 0001349  90.0514 270.0633 15.08841042 62993,6917.877,95.437,540.675,538.809,0.0
53531.0,STARLINK-4487,PAYLOAD,2023-10-09 17:10:36,15.08848223,0.0001281,53.2168,73.4521,93.7639,266.35,0.00019509,2.819e-05,0.0,0 STARLINK-4487,1 53531U 22101E   23282.71570538  .00002819  00000-0  19509-3 0  9993,2 53531  53.2168  73.4521 0001281  93.7639 266.3500 15.08848223 63018,6917.855,95.437,540.606,538.834,0.0
